STARLINK-2453           
1 47845U 21018BL  26068.71554431  .00000358  00000+0  42930-4 0  9999
2 47845  53.0568 251.5027 0001296  88.8704 271.2433 15.06398266276601
STARLING 4              
1 57386U 23100A   26066.02836485 -.00000009  00000+0  55676-5 0  9994
2 57386  99.5115  59.9711 0007803  83.0949 277.1159 15.06148396144525
